KUIPER-00203            
1 67773U 26030K   26052.16668981  .00058932  00000+0  17954-2 0  9995
2 67773  51.8797 298.8930 0012431  13.6009 311.3483 15.33339287  1309
KUIPER-00205            
1 67774U 26030L   26052.16668981  .00064854  00000+0  18431-2 0  9997
2 67774  51.8810 298.7641 0001766 349.3207  40.4663 15.35558357  1743
KUIPER-00208            
1 67775U 26030M   26052.16668981  .00056407  00000+0  17498-2 0  9995
2 67775  51.8831 298.9273 0014952  14.3837 296.9492 15.32753247  2290
KUIPER-00209            
1 67776U 26030N   26052.16668981  .00056500  00000+0  17503-2 0  9997
2 67776  51.8825 298.9153 0013123  13.0111 303.5077 15.32819797  1949
KUIPER-00213            
1 67777U 26030P   26052.16668981  .00057240  00000+0  17677-2 0  9992
2 67777  51.8806 298.9133 0014420  13.9817 301.6271 15.32895448  2459
KUIPER-00214            
1 67778U 26030Q   26052.16668981  .00065316  00000+0  18273-2 0  9999
2 67778  51.8844 298.7316 0001823 128.9935 277.5423 15.36046322  2367
KUIPER-00215            
1 67779U 26030R   26052.16668981  .00058858  00000+0  17710-2 0  9998
2 67779  51.8837 298.8728 0010084  10.5319 327.6778 15.33760089  1302
KUIPER-00218            
1 67780U 26030S   26052.16668981  .00060895  00000+0  17930-2 0  9998
2 67780  51.8830 298.8298 0006316   7.9732 350.6119 15.34458285  1321
KUIPER-00220            
1 67781U 26030T   26052.16668981  .00059736  00000+0  17854-2 0  9996
2 67781  51.8807 298.8540 0007981   9.1727 336.1518 15.33982747  2072
KUIPER-00222            
1 67782U 26030U   26052.16668981  .00060467  00000+0  18910-2 0  9994
2 67782  51.8806 298.9356 0017143  15.4516 288.8062 15.32429031  2400
KUIPER-00223            
1 67783U 26030V   26052.16668981  .00059111  00000+0  17926-2 0  9995
2 67783  51.8824 298.8878 0012118  10.3238 319.6434 15.33487326  2229
KUIPER-00225            
1 67784U 26030W   26052.16668981  .00062504  00000+0  18031-2 0  9994
2 67784  51.8809 298.7868 0003497   0.0121  18.5108 15.35101923  1486
